ONEWEB-0197             
1 48236U 21031AC  25213.45654878  .00000348  00000+0  90489-3 0  9997
2 48236  87.9058 353.3159 0001822 107.5072 252.6257 13.14502922206181
ONEWEB-0194             
1 48237U 21031AD  25213.35901395  .00000056  00000+0  11601-3 0  9991
2 48237  87.9071 353.3441 0002054  94.7218 265.4146 13.14504156206346
ONEWEB-0193             
1 48238U 21031AE  25213.45098780  .00000301  00000+0  77725-3 0  9990
2 48238  87.9064 353.3324 0001829  91.6897 268.4443 13.14505265206308
ONEWEB-0191             
1 48239U 21031AF  25213.46209364  .00000314  00000+0  81112-3 0  9993
2 48239  87.9068 353.3025 0001965  89.9002 270.2353 13.14503698206163
ONEWEB-0195             
1 48240U 21031AG  25213.36297523  .00000094  00000+0  21796-3 0  9995
2 48240  87.9067 353.3196 0001534  86.9236 273.2069 13.14502092206132
ONEWEB-0201             
1 48241U 21031AH  25213.42734598 -.00000094  00000+0 -28851-3 0  9992
2 48241  87.9071 353.3549 0001533 102.5803 257.5498 13.14502490206373
ONEWEB-0207             
1 48242U 21031AJ  25213.40738133 -.00000050  00000+0 -16888-3 0  9999
2 48242  87.9069 353.3187 0001694 103.4598 256.6721 13.14503174206287
ONEWEB-0208             
1 48243U 21031AK  25213.38913277  .00000220  00000+0  55952-3 0  9993
2 48243  87.9071 353.3372 0001679  92.0668 268.0654 13.14504879206297
ONEWEB-0200             
1 48244U 21031AL  25213.42877287 -.00000094  00000+0 -28827-3 0  9991
2 48244  87.9068 353.3207 0001733  94.9269 265.2059 13.14504870206222
ONEWEB-0217             
1 48245U 21031AM  25213.36852504  .00000196  00000+0  49330-3 0  9993
2 48245  87.9068 353.3171 0001664  88.0538 272.0783 13.14504245206168
ONEWEB-0211             
1 48767U 21045A   25213.58968972  .00000166  00000+0  40485-3 0  9997
2 48767  87.9087 322.8757 0002012  86.7152 273.4208 13.16082581202400
ONEWEB-0223             
1 48768U 21045B   25213.75248458  .00000182  00000+0  45034-3 0  9990
2 48768  87.9078 322.8925 0002154  86.7741 273.3635 13.15548222203546
ONEWEB-0230             
1 48769U 21045C   25213.34368645 -.00000026  00000+0 -10199-3 0  9990
2 48769  87.9067 323.0088 0002017 102.3661 257.7695 13.15548673202611
ONEWEB-0237             
1 48770U 21045D   25213.33258898 -.00000069  00000+0 -21676-3 0  9998
2 48770  87.9092 322.9973 0002136  92.0262 268.1113 13.15548432202339
ONEWEB-0235             
1 48771U 21045E   25213.30723890  .00000171  00000+0  41974-3 0  9990
2 48771  87.9084 322.9792 0002350  87.9323 272.2077 13.15549820202325
ONEWEB-0242             
1 48772U 21045F   25213.37694623  .00000161  00000+0  39262-3 0  9995
2 48772  87.9084 322.9504 0002136  97.1389 262.9984 13.15550745202370
ONEWEB-0241             
1 48773U 21045G   25213.74456227  .00000128  00000+0  30716-3 0  9991
2 48773  87.9067 322.9312 0001883  85.5828 274.5517 13.15549637203466
