[{"OBJECT_NAME":"ONEWEB-0197","OBJECT_ID":"2021-031AC","EPOCH":"2025-08-01T10:57:25.814592","MEAN_MOTION":13.14502922,"ECCENTRICITY":0.0001822,"INCLINATION":87.9058,"RA_OF_ASC_NODE":353.3159,"ARG_OF_PERICENTER":107.5072,"MEAN_ANOMALY":252.6257,"EPHEMERIS_TYPE":0,"CLASSIFICATION_TYPE":"U","NORAD_CAT_ID":48236,"ELEMENT_SET_NO":999,"REV_AT_EPOCH":20618,"BSTAR":0.00090489,"MEAN_MOTION_DOT":3.48e-6,"MEAN_MOTION_DDOT":0},{"OBJECT_NAME":"ONEWEB-0194","OBJECT_ID":"2021-031AD","EPOCH":"2025-08-01T08:36:58.805280","MEAN_MOTION":13.14504156,"ECCENTRICITY":0.0002054,"INCLINATION":87.9071,"RA_OF_ASC_NODE":353.3441,"ARG_OF_PERICENTER":94.7218,"MEAN_ANOMALY":265.4146,"EPHEMERIS_TYPE":0,"CLASSIFICATION_TYPE":"U","NORAD_CAT_ID":48237,"ELEMENT_SET_NO":999,"REV_AT_EPOCH":20634,"BSTAR":0.00011601,"MEAN_MOTION_DOT":5.6e-7,"MEAN_MOTION_DDOT":0},{"OBJECT_NAME":"ONEWEB-0193","OBJECT_ID":"2021-031AE","EPOCH":"2025-08-01T10:49:25.345920","MEAN_MOTION":13.14505265,"ECCENTRICITY":0.0001829,"INCLINATION":87.9064,"RA_OF_ASC_NODE":353.3324,"ARG_OF_PERICENTER":91.6897,"MEAN_ANOMALY":268.4443,"EPHEMERIS_TYPE":0,"CLASSIFICATION_TYPE":"U","NORAD_CAT_ID":48238,"ELEMENT_SET_NO":999,"REV_AT_EPOCH":20630,"BSTAR":0.00077725,"MEAN_MOTION_DOT":3.01e-6,"MEAN_MOTION_DDOT":0},{"OBJECT_NAME":"ONEWEB-0191","OBJECT_ID":"2021-031AF","EPOCH":"2025-08-01T11:05:24.890496","MEAN_MOTION":13.14503698,"ECCENTRICITY":0.0001965,"INCLINATION":87.9068,"RA_OF_ASC_NODE":353.3025,"ARG_OF_PERICENTER":89.9002,"MEAN_ANOMALY":270.2353,"EPHEMERIS_TYPE":0,"CLASSIFICATION_TYPE":"U","NORAD_CAT_ID":48239,"ELEMENT_SET_NO":999,"REV_AT_EPOCH":20616,"BSTAR":0.00081112,"MEAN_MOTION_DOT":3.14e-6,"MEAN_MOTION_DDOT":0},{"OBJECT_NAME":"ONEWEB-0195","OBJECT_ID":"2021-031AG","EPOCH":"2025-08-01T08:42:41.059872","MEAN_MOTION":13.14502092,"ECCENTRICITY":0.0001534,"INCLINATION":87.9067,"RA_OF_ASC_NODE":353.3196,"ARG_OF_PERICENTER":86.9236,"MEAN_ANOMALY":273.2069,"EPHEMERIS_TYPE":0,"CLASSIFICATION_TYPE":"U","NORAD_CAT_ID":48240,"ELEMENT_SET_NO":999,"REV_AT_EPOCH":20613,"BSTAR":0.00021796,"MEAN_MOTION_DOT":9.4e-7,"MEAN_MOTION_DDOT":0},{"OBJECT_NAME":"ONEWEB-0201","OBJECT_ID":"2021-031AH","EPOCH":"2025-08-01T10:15:22.692672","MEAN_MOTION":13.1450249,"ECCENTRICITY":0.0001533,"INCLINATION":87.9071,"RA_OF_ASC_NODE":353.3549,"ARG_OF_PERICENTER":102.5803,"MEAN_ANOMALY":257.5498,"EPHEMERIS_TYPE":0,"CLASSIFICATION_TYPE":"U","NORAD_CAT_ID":48241,"ELEMENT_SET_NO":999,"REV_AT_EPOCH":20637,"BSTAR":-0.00028851,"MEAN_MOTION_DOT":-9.4e-7,"MEAN_MOTION_DDOT":0},{"OBJECT_NAME":"ONEWEB-0207","OBJECT_ID":"2021-031AJ","EPOCH":"2025-08-01T09:46:37.746912","MEAN_MOTION":13.14503174,"ECCENTRICITY":0.0001694,"INCLINATION":87.9069,"RA_OF_ASC_NODE":353.3187,"ARG_OF_PERICENTER":103.4598,"MEAN_ANOMALY":256.6721,"EPHEMERIS_TYPE":0,"CLASSIFICATION_TYPE":"U","NORAD_CAT_ID":48242,"ELEMENT_SET_NO":999,"REV_AT_EPOCH":20628,"BSTAR":-0.00016888,"MEAN_MOTION_DOT":-5.0e-7,"MEAN_MOTION_DDOT":0},{"OBJECT_NAME":"ONEWEB-0208","OBJECT_ID":"2021-031AK","EPOCH":"2025-08-01T09:20:21.071328","MEAN_MOTION":13.14504879,"ECCENTRICITY":0.0001679,"INCLINATION":87.9071,"RA_OF_ASC_NODE":353.3372,"ARG_OF_PERICENTER":92.0668,"MEAN_ANOMALY":268.0654,"EPHEMERIS_TYPE":0,"CLASSIFICATION_TYPE":"U","NORAD_CAT_ID":48243,"ELEMENT_SET_NO":999,"REV_AT_EPOCH":20629,"BSTAR":0.00055952,"MEAN_MOTION_DOT":2.2e-6,"MEAN_MOTION_DDOT":0},{"OBJECT_NAME":"ONEWEB-0200","OBJECT_ID":"2021-031AL","EPOCH":"2025-08-01T10:17:25.975968","MEAN_MOTION":13.1450487,"ECCENTRICITY":0.0001733,"INCLINATION":87.9068,"RA_OF_ASC_NODE":353.3207,"ARG_OF_PERICENTER":94.9269,"MEAN_ANOMALY":265.2059,"EPHEMERIS_TYPE":0,"CLASSIFICATION_TYPE":"U","NORAD_CAT_ID":48244,"ELEMENT_SET_NO":999,"REV_AT_EPOCH":20622,"BSTAR":-0.00028827,"MEAN_MOTION_DOT":-9.4e-7,"MEAN_MOTION_DDOT":0},{"OBJECT_NAME":"ONEWEB-0217","OBJECT_ID":"2021-031AM","EPOCH":"2025-08-01T08:50:40.563456","MEAN_MOTION":13.14504245,"ECCENTRICITY":0.0001664,"INCLINATION":87.9068,"RA_OF_ASC_NODE":353.3171,"ARG_OF_PERICENTER":88.0538,"MEAN_ANOMALY":272.0783,"EPHEMERIS_TYPE":0,"CLASSIFICATION_TYPE":"U","NORAD_CAT_ID":48245,"ELEMENT_SET_NO":999,"REV_AT_EPOCH":20616,"BSTAR":0.0004933,"MEAN_MOTION_DOT":1.96e-6,"MEAN_MOTION_DDOT":0},{"OBJECT_NAME":"ONEWEB-0211","OBJECT_ID":"2021-045A","EPOCH":"2025-08-01T14:09:09.191808","MEAN_MOTION":13.16082581,"ECCENTRICITY":0.0002012,"INCLINATION":87.9087,"RA_OF_ASC_NODE":322.8757,"ARG_OF_PERICENTER":86.7152,"MEAN_ANOMALY":273.4208,"EPHEMERIS_TYPE":0,"CLASSIFICATION_TYPE":"U","NORAD_CAT_ID":48767,"ELEMENT_SET_NO":999,"REV_AT_EPOCH":20240,"BSTAR":0.00040485,"MEAN_MOTION_DOT":1.66e-6,"MEAN_MOTION_DDOT":0},{"OBJECT_NAME":"ONEWEB-0223","OBJECT_ID":"2021-045B","EPOCH":"2025-08-01T18:03:34.667712","MEAN_MOTION":13.15548222,"ECCENTRICITY":0.0002154,"INCLINATION":87.9078,"RA_OF_ASC_NODE":322.8925,"ARG_OF_PERICENTER":86.7741,"MEAN_ANOMALY":273.3635,"EPHEMERIS_TYPE":0,"CLASSIFICATION_TYPE":"U","NORAD_CAT_ID":48768,"ELEMENT_SET_NO":999,"REV_AT_EPOCH":20354,"BSTAR":0.00045034,"MEAN_MOTION_DOT":1.82e-6,"MEAN_MOTION_DDOT":0},{"OBJECT_NAME":"ONEWEB-0230","OBJECT_ID":"2021-045C","EPOCH":"2025-08-01T08:14:54.509280","MEAN_MOTION":13.15548673,"ECCENTRICITY":0.0002017,"INCLINATION":87.9067,"RA_OF_ASC_NODE":323.0088,"ARG_OF_PERICENTER":102.3661,"MEAN_ANOMALY":257.7695,"EPHEMERIS_TYPE":0,"CLASSIFICATION_TYPE":"U","NORAD_CAT_ID":48769,"ELEMENT_SET_NO":999,"REV_AT_EPOCH":20261,"BSTAR":-0.00010199,"MEAN_MOTION_DOT":-2.6e-7,"MEAN_MOTION_DDOT":0},{"OBJECT_NAME":"ONEWEB-0237","OBJECT_ID":"2021-045D","EPOCH":"2025-08-01T07:58:55.687872","MEAN_MOTION":13.15548432,"ECCENTRICITY":0.0002136,"INCLINATION":87.9092,"RA_OF_ASC_NODE":322.9973,"ARG_OF_PERICENTER":92.0262,"MEAN_ANOMALY":268.1113,"EPHEMERIS_TYPE":0,"CLASSIFICATION_TYPE":"U","NORAD_CAT_ID":48770,"ELEMENT_SET_NO":999,"REV_AT_EPOCH":20233,"BSTAR":-0.00021676,"MEAN_MOTION_DOT":-6.9e-7,"MEAN_MOTION_DDOT":0},{"OBJECT_NAME":"ONEWEB-0235","OBJECT_ID":"2021-045E","EPOCH":"2025-08-01T07:22:25.440960","MEAN_MOTION":13.1554982,"ECCENTRICITY":0.000235,"INCLINATION":87.9084,"RA_OF_ASC_NODE":322.9792,"ARG_OF_PERICENTER":87.9323,"MEAN_ANOMALY":272.2077,"EPHEMERIS_TYPE":0,"CLASSIFICATION_TYPE":"U","NORAD_CAT_ID":48771,"ELEMENT_SET_NO":999,"REV_AT_EPOCH":20232,"BSTAR":0.00041974,"MEAN_MOTION_DOT":1.71e-6,"MEAN_MOTION_DDOT":0},{"OBJECT_NAME":"ONEWEB-0242","OBJECT_ID":"2021-045F","EPOCH":"2025-08-01T09:02:48.154272","MEAN_MOTION":13.15550745,"ECCENTRICITY":0.0002136,"INCLINATION":87.9084,"RA_OF_ASC_NODE":322.9504,"ARG_OF_PERICENTER":97.1389,"MEAN_ANOMALY":262.9984,"EPHEMERIS_TYPE":0,"CLASSIFICATION_TYPE":"U","NORAD_CAT_ID":48772,"ELEMENT_SET_NO":999,"REV_AT_EPOCH":20237,"BSTAR":0.00039262,"MEAN_MOTION_DOT":1.61e-6,"MEAN_MOTION_DDOT":0},{"OBJECT_NAME":"ONEWEB-0241","OBJECT_ID":"2021-045G","EPOCH":"2025-08-01T17:52:10.180128","MEAN_MOTION":13.15549637,"ECCENTRICITY":0.0001883,"INCLINATION":87.9067,"RA_OF_ASC_NODE":322.9312,"ARG_OF_PERICENTER":85.5828,"MEAN_ANOMALY":274.5517,"EPHEMERIS_TYPE":0,"CLASSIFICATION_TYPE":"U","NORAD_CAT_ID":48773,"ELEMENT_SET_NO":999,"REV_AT_EPOCH":20346,"BSTAR":0.00030716,"MEAN_MOTION_DOT":1.28e-6,"MEAN_MOTION_DDOT":0}]
